COSMOS 2433 [GLONASS-M] 
1 32275U 07052A   26131.78282013 -.00000009  00000+0  00000+0 0  9995
2 32275  65.5978 317.1591 0001243 191.0102 169.0073  2.13104328144281
COSMOS 2432 [GLONASS-M] 
1 32276U 07052B   26132.10993924 -.00000010  00000+0  00000+0 0  9995
2 32276  65.6137 317.2752 0008594 337.2398 217.7426  2.13103395144317
COSMOS 2434 [GLONASS-M] 
1 32393U 07065A   26130.51252392  .00000043  00000+0  00000+0 0  9994
2 32393  64.3159 193.1864 0001338  41.0880 314.4141  2.13101518142960
COSMOS 2436 [GLONASS-M] 
1 32395U 07065C   26131.35586140  .00000051  00000+0  00000+0 0  9999
2 32395  64.3243 193.2296 0017147 357.3536  57.5959  2.13100463142940
COSMOS 2456 [GLONASS-M] 
1 36111U 09070A   26129.60157291  .00000012  00000+0  00000+0 0  9990
2 36111  64.9902  72.2874 0005846 319.1625 215.4151  2.13103862127605
COSMOS 2457 [GLONASS-M] 
1 36112U 09070B   26131.77733587  .00000003  00000+0  00000+0 0  9990
2 36112  64.9768  72.0579 0001436 149.7182  21.7831  2.13101277127658
COSMOS 2460 [GLONASS-M] 
1 36402U 10007C   26131.55793229 -.00000009  00000+0  00000+0 0  9996
2 36402  65.4421 315.7062 0002330  75.4880 289.5475  2.13106456125953
COSMOS 2476 [GLONASS-M] 
1 37867U 11064A   26131.59394439  .00000010  00000+0  00000+0 0  9991
2 37867  65.2506  74.1062 0023774 241.4161 289.9879  2.13103972112980
COSMOS 2477 [GLONASS-M] 
1 37868U 11064B   26132.17526850  .00000006  00000+0  00000+0 0  9996
2 37868  65.2570  74.1657 0020786 243.0844 194.7391  2.13103074112994
COSMOS 2475 [GLONASS-M] 
1 37869U 11064C   26129.48178144  .00000017  00000+0  00000+0 0  9998
2 37869  65.2627  74.2779 0026656 254.9839 231.7650  2.13101748112942
COSMOS 2485 [GLONASS-M] 
1 39155U 13019A   26128.96145352  .00000019  00000+0  00000+0 0  9999
2 39155  65.3993  74.9199 0024215 236.9757 122.7813  2.13103371101447
COSMOS 2492 [GLONASS-M] 
1 39620U 14012A   26129.38966135 -.00000011  00000+0  00000+0 0  9990
2 39620  65.3203 315.2545 0011098 329.7315  30.2203  2.13103326 94414
COSMOS 2500 [GLONASS-M] 
1 40001U 14032A   26129.09065559 -.00000012  00000+0  00000+0 0  9996
2 40001  65.2556 315.0151 0005992 181.4520 178.5615  2.13106197 92620
COSMOS 2501 [GLONASS-K] 
1 40315U 14075A   26132.16777410  .00000063  00000+0  00000+0 0  9994
2 40315  63.6144 191.6187 0022121 210.6974 149.2493  2.13101552 89086
COSMOS 2514 [GLONASS-M] 
1 41330U 16008A   26130.74439794 -.00000009  00000+0  00000+0 0  9993
2 41330  65.0443 314.2915 0009918 197.1517 162.8310  2.13102718 79820
COSMOS 2522 [GLONASS-M] 
1 42939U 17055A   26131.05152639  .00000048  00000+0  00000+0 0  9999
2 42939  64.0765 193.1479 0009844 237.6209 122.3564  2.13102017 67187
COSMOS 2527 [GLONASS-M] 
1 43508U 18053A   26130.54369296  .00000017  00000+0  00000+0 0  9999
2 43508  65.5577  75.1624 0008142 246.5326 113.3712  2.13102285 61475
COSMOS 2529 [GLONASS-M] 
1 43687U 18086A   26132.04825520  .00000058  00000+0  00000+0 0  9992
2 43687  64.2931 193.8143 0010911 255.4886 104.4650  2.13102225 58511
COSMOS 2534 [GLONASS-M] 
1 44299U 19030A   26130.46780834  .00000041  00000+0  00000+0 0  9996
2 44299  64.3663 193.8862 0012337 276.0898  85.9352  2.13102604 54124
COSMOS 2544 [GLONASS-M] 
1 44850U 19088A   26130.95764889  .00000015  00000+0  00000+0 0  9999
2 44850  65.5460  74.9726 0014547 261.4033  98.4208  2.13102139 49921
COSMOS 2545 [GLONASS-M] 
1 45358U 20018A   26131.62217674 -.00000011  00000+0  00000+0 0  9995
2 45358  64.3776 313.7043 0007240 235.7483 124.1982  2.13102757 47888
COSMOS 2547 [GLONASS-K] 
1 46805U 20075A   26125.24171473  .00000033  00000+0  00000+0 0  9996
2 46805  64.5969 193.9081 0008440 236.6486 123.3485  2.13100494 42990
COSMOS 2557 [GLONASS-K] 
1 52984U 22075A   26131.03742718 -.00000012  00000+0  00000+0 0  9991
2 52984  64.3205 315.7944 0010099 280.3668  79.5372  2.13102369 29927
COSMOS 2559 [GLONASS-K] 
1 54031U 22130A   26130.85697598 -.00000012  00000+0  00000+0 0  9992
2 54031  64.2936 315.8848 0011772 176.1333 183.8938  2.13101551 27899
COSMOS 2564 [GLONASS-M] 
1 54377U 22161A   26132.10814193  .00000059  00000+0  00000+0 0  9991
2 54377  64.7391 193.9090 0011504 221.8777 138.1090  2.13102006 26863
COSMOS 2569 [GLONASS-K2]
1 57517U 23114A   26131.18203020  .00000011  00000+0  00000+0 0  9995
2 57517  65.2824  73.8678 0012002 296.0695  63.7959  2.13103733 21471
COSMOS 2584 [GLONASS-K2]
1 63130U 25042A   26132.00743067  .00000007  00000+0  00000+0 0  9992
2 63130  65.0651  74.0315 0006368 235.1124 124.8145  2.13103749  9272
COSMOS 2596 [GLONASS-K1]
1 65590U 25206B   26132.08725519 -.00000012  00000+0  00000+0 0  9993
2 65590  64.6568 316.2427 0011355 315.8273 222.0958  2.13100605  5147
